start=new Date('2022-09-27T00:00:00.000Z').valueOf();
sats=[{"CLASSIFICATION_TYPE":"U","COUNTRY_CODE":"US","CENTER_NAME":"EARTH","TLE_LINE1":"1 53776U 22111D   22269.91667824  .00011319  00000-0  85100-4 0  9992","PERIAPSIS":"348.886","APOAPSIS":"350.858","RA_OF_ASC_NODE":"188.6305","PERIOD":"91.535","MEAN_MOTION_DOT":"0.00011319","TLE_LINE2":"2 53776  53.2168 188.6305 0001465 115.2866 234.7077 15.73160823  1301","TIME_SYSTEM":"UTC","DECAY_DATE":null,"REV_AT_EPOCH":"130","EPOCH":"2022-09-26T22:00:00.999936","SEMIMAJOR_AXIS":"6728.007","OBJECT_TYPE":"PAYLOAD","LAUNCH_DATE":"2022-09-11","MEAN_ANOMALY":"234.7077","INCLINATION":"53.2168","RCS_SIZE":"LARGE","OBJECT_NAME":"STARLINK-4708","MEAN_ELEMENT_THEORY":"SGP4","REF_FRAME":"TEME","OBJECT_ID":"2022-111D","ARG_OF_PERICENTER":"115.2866","ELEMENT_SET_NO":"999","GP_ID":"213602615","SITE":"AFETR","BSTAR":"0.00008510000000","ECCENTRICITY":"0.00014650","MEAN_MOTION":"15.73160823","MEAN_MOTION_DDOT":"0.0000000000000","EPHEMERIS_TYPE":"0","NORAD_CAT_ID":"53776","FILE":"3584555"},{"APOAPSIS":"350.563","RA_OF_ASC_NODE":"188.6260","TLE_LINE1":"1 53777U 22111E   22269.91667824 -.00056235  00000-0 -39853-3 0  9994","PERIAPSIS":"348.822","CENTER_NAME":"EARTH","CLASSIFICATION_TYPE":"U","COUNTRY_CODE":"US","LAUNCH_DATE":"2022-09-11","MEAN_ANOMALY":"237.7013","OBJECT_TYPE":"PAYLOAD","SEMIMAJOR_AXIS":"6727.827","DECAY_DATE":null,"REV_AT_EPOCH":"130","EPOCH":"2022-09-26T22:00:00.999936","TLE_LINE2":"2 53777  53.2167 188.6260 0001294 114.6574 237.7013 15.73223806  1304","TIME_SYSTEM":"UTC","PERIOD":"91.532","MEAN_MOTION_DOT":"-0.00056235","GP_ID":"213601791","SITE":"AFETR","ARG_OF_PERICENTER":"114.6574","ELEMENT_SET_NO":"999","OBJECT_ID":"2022-111E","REF_FRAME":"TEME","MEAN_ELEMENT_THEORY":"SGP4","OBJECT_NAME":"STARLINK-4664","RCS_SIZE":"LARGE","INCLINATION":"53.2167","FILE":"3584555","NORAD_CAT_ID":"53777","MEAN_MOTION_DDOT":"0.0000000000000","MEAN_MOTION":"15.73223806","EPHEMERIS_TYPE":"0","ECCENTRICITY":"0.00012940","BSTAR":"-0.00039853000000"},{"MEAN_ANOMALY":"231.9261","LAUNCH_DATE":"2022-09-11","OBJECT_TYPE":"PAYLOAD","SEMIMAJOR_AXIS":"6727.982","EPOCH":"2022-09-26T22:00:00.999936","REV_AT_EPOCH":"130","DECAY_DATE":null,"TIME_SYSTEM":"UTC","TLE_LINE2":"2 53778  53.2163 188.6294 0001144 118.6168 231.9261 15.73169710  1309","MEAN_MOTION_DOT":"0.00013338","PERIOD":"91.535","RA_OF_ASC_NODE":"188.6294","APOAPSIS":"350.616","PERIAPSIS":"349.077","TLE_LINE1":"1 53778U 22111F   22269.91667824  .00013338  00000-0  99427-4 0  9994","CENTER_NAME":"EARTH","COUNTRY_CODE":"US","CLASSIFICATION_TYPE":"U","FILE":"3584555","NORAD_CAT_ID":"53778","EPHEMERIS_TYPE":"0","MEAN_MOTION":"15.73169710","MEAN_MOTION_DDOT":"0.0000000000000","ECCENTRICITY":"0.00011440","BSTAR":"0.00009942700000","SITE":"AFETR","GP_ID":"213602777","ELEMENT_SET_NO":"999","ARG_OF_PERICENTER":"118.6168","OBJECT_ID":"2022-111F","REF_FRAME":"TEME","MEAN_ELEMENT_THEORY":"SGP4","OBJECT_NAME":"STARLINK-4709","INCLINATION":"53.2163","RCS_SIZE":"LARGE"},{"TLE_LINE2":"2 53779  53.2170 188.6243 0001566 116.8013 236.1892 15.73236841  1306","TIME_SYSTEM":"UTC","PERIOD":"91.531","MEAN_MOTION_DOT":"-0.00061361","SEMIMAJOR_AXIS":"6727.790","DECAY_DATE":null,"REV_AT_EPOCH":"130","EPOCH":"2022-09-26T22:00:00.999936","OBJECT_TYPE":"PAYLOAD","LAUNCH_DATE":"2022-09-11","MEAN_ANOMALY":"236.1892","CLASSIFICATION_TYPE":"U","COUNTRY_CODE":"US","TLE_LINE1":"1 53779U 22111G   22269.91667824 -.00061361  00000-0 -43527-3 0  9995","PERIAPSIS":"348.602","CENTER_NAME":"EARTH","APOAPSIS":"350.709","RA_OF_ASC_NODE":"188.6243","ECCENTRICITY":"0.00015660","BSTAR":"-0.00043527000000","MEAN_MOTION_DDOT":"0.0000000000000","MEAN_MOTION":"15.73236841","EPHEMERIS_TYPE":"0","FILE":"3584555","NORAD_CAT_ID":"53779","OBJECT_NAME":"STARLINK-4706","RCS_SIZE":"LARGE","INCLINATION":"53.2170","REF_FRAME":"TEME","MEAN_ELEMENT_THEORY":"SGP4","ARG_OF_PERICENTER":"116.8013","ELEMENT_SET_NO":"999","OBJECT_ID":"2022-111G","GP_ID":"213601627","SITE":"AFETR"},{"EPHEMERIS_TYPE":"0","MEAN_MOTION_DDOT":"0.0000000000000","MEAN_MOTION":"15.73218144","FILE":"3584555","NORAD_CAT_ID":"53780","BSTAR":"-0.00036410000000","ECCENTRICITY":"0.00010770","OBJECT_ID":"2022-111H","ELEMENT_SET_NO":"999","ARG_OF_PERICENTER":"120.2395","SITE":"AFETR","GP_ID":"213602373","INCLINATION":"53.2180","RCS_SIZE":"LARGE","OBJECT_NAME":"STARLINK-4678","MEAN_ELEMENT_THEORY":"SGP4","REF_FRAME":"TEME","OBJECT_TYPE":"PAYLOAD","MEAN_ANOMALY":"231.5096","LAUNCH_DATE":"2022-09-11","MEAN_MOTION_DOT":"-0.00051445","PERIOD":"91.532","TIME_SYSTEM":"UTC","TLE_LINE2":"2 53780  53.2180 188.6282 0001077 120.2395 231.5096 15.73218144  1302","REV_AT_EPOCH":"130","EPOCH":"2022-09-26T22:00:00.999936","DECAY_DATE":null,"SEMIMAJOR_AXIS":"6727.843","RA_OF_ASC_NODE":"188.6282","APOAPSIS":"350.433","COUNTRY_CODE":"US","CLASSIFICATION_TYPE":"U","CENTER_NAME":"EARTH","PERIAPSIS":"348.984","TLE_LINE1":"1 53780U 22111H   22269.91667824 -.00051445  00000-0 -36410-3 0  9992"},{"OBJECT_ID":"2022-111J","ARG_OF_PERICENTER":"125.1690","ELEMENT_SET_NO":"999","GP_ID":"213602208","SITE":"AFETR","INCLINATION":"53.2183","RCS_SIZE":"MEDIUM","OBJECT_NAME":"STARLINK-4462","MEAN_ELEMENT_THEORY":"SGP4","REF_FRAME":"TEME","MEAN_MOTION_DDOT":"0.0000000000000","MEAN_MOTION":"15.73204464","EPHEMERIS_TYPE":"0","NORAD_CAT_ID":"53781","FILE":"3584555","BSTAR":"-0.00012854000000","ECCENTRICITY":"0.00015160","APOAPSIS":"350.767","RA_OF_ASC_NODE":"188.6221","CLASSIFICATION_TYPE":"U","COUNTRY_CODE":"US","CENTER_NAME":"EARTH","TLE_LINE1":"1 53781U 22111J   22269.91667824 -.00018624  00000-0 -12854-3 0  9991","PERIAPSIS":"348.727","OBJECT_TYPE":"PAYLOAD","LAUNCH_DATE":"2022-09-11","MEAN_ANOMALY":"229.5312","PERIOD":"91.533","MEAN_MOTION_DOT":"-0.00018624","TLE_LINE2":"2 53781  53.2183 188.6221 0001516 125.1690 229.5312 15.73204464  1307","TIME_SYSTEM":"UTC","DECAY_DATE":null,"REV_AT_EPOCH":"130","EPOCH":"2022-09-26T22:00:00.999936","SEMIMAJOR_AXIS":"6727.882"},{"MEAN_MOTION_DDOT":"0.0000000000000","MEAN_MOTION":"15.73244021","EPHEMERIS_TYPE":"0","NORAD_CAT_ID":"53782","FILE":"3584555","ECCENTRICITY":"0.00012230","BSTAR":"-0.00045238000000","ARG_OF_PERICENTER":"127.8880","ELEMENT_SET_NO":"999","OBJECT_ID":"2022-111K","GP_ID":"213602535","SITE":"AFETR","OBJECT_NAME":"STARLINK-4679","RCS_SIZE":"LARGE","INCLINATION":"53.2182","REF_FRAME":"TEME","MEAN_ELEMENT_THEORY":"SGP4","OBJECT_TYPE":"PAYLOAD","LAUNCH_DATE":"2022-09-11","MEAN_ANOMALY":"225.6213","TLE_LINE2":"2 53782  53.2182 188.6243 0001223 127.8880 225.6213 15.73244021  1306","TIME_SYSTEM":"UTC","PERIOD":"91.531","MEAN_MOTION_DOT":"-0.00063748","SEMIMAJOR_AXIS":"6727.770","DECAY_DATE":null,"REV_AT_EPOCH":"130","EPOCH":"2022-09-26T22:00:00.999936","APOAPSIS":"350.457","RA_OF_ASC_NODE":"188.6243","CLASSIFICATION_TYPE":"U","COUNTRY_CODE":"US","TLE_LINE1":"1 53782U 22111K   22269.91667824 -.00063748  00000-0 -45238-3 0  9991","PERIAPSIS":"348.812","CENTER_NAME":"EARTH"},{"TLE_LINE2":"2 53783  53.2181 188.6198 0001634 118.9520 236.8763 15.73222638  1307","TIME_SYSTEM":"UTC","PERIOD":"91.532","MEAN_MOTION_DOT":"-0.00017691","SEMIMAJOR_AXIS":"6727.831","DECAY_DATE":null,"REV_AT_EPOCH":"130","EPOCH":"2022-09-26T22:00:00.999936","OBJECT_TYPE":"PAYLOAD","LAUNCH_DATE":"2022-09-11","MEAN_ANOMALY":"236.8763","CLASSIFICATION_TYPE":"U","COUNTRY_CODE":"US","TLE_LINE1":"1 53783U 22111L   22269.91667824 -.00017691  00000-0 -12177-3 0  9994","PERIAPSIS":"348.596","CENTER_NAME":"EARTH","APOAPSIS":"350.795","RA_OF_ASC_NODE":"188.6198","ECCENTRICITY":"0.00016340","BSTAR":"-0.00012177000000","MEAN_MOTION_DDOT":"0.0000000000000","MEAN_MOTION":"15.73222638","EPHEMERIS_TYPE":"0","NORAD_CAT_ID":"53783","FILE":"3584555","OBJECT_NAME":"STARLINK-4536","INCLINATION":"53.2181","RCS_SIZE":"LARGE","REF_FRAME":"TEME","MEAN_ELEMENT_THEORY":"SGP4","ARG_OF_PERICENTER":"118.9520","ELEMENT_SET_NO":"999","OBJECT_ID":"2022-111L","GP_ID":"213602043","SITE":"AFETR"},{"SEMIMAJOR_AXIS":"6727.919","REV_AT_EPOCH":"130","EPOCH":"2022-09-26T22:00:00.999936","DECAY_DATE":null,"TIME_SYSTEM":"UTC","TLE_LINE2":"2 53784  53.2179 188.6225 0001258 124.2615 229.8843 15.73191526  1305","MEAN_MOTION_DOT":"-0.00018488","PERIOD":"91.534","MEAN_ANOMALY":"229.8843","LAUNCH_DATE":"2022-09-11","OBJECT_TYPE":"PAYLOAD","PERIAPSIS":"348.938","TLE_LINE1":"1 53784U 22111M   22269.91667824 -.00018488  00000-0 -12765-3 0  9993","CENTER_NAME":"EARTH","COUNTRY_CODE":"US","CLASSIFICATION_TYPE":"U","RA_OF_ASC_NODE":"188.6225","APOAPSIS":"350.631","ECCENTRICITY":"0.00012580","BSTAR":"-0.00012765000000","FILE":"3584555","NORAD_CAT_ID":"53784","EPHEMERIS_TYPE":"0","MEAN_MOTION_DDOT":"0.0000000000000","MEAN_MOTION":"15.73191526","REF_FRAME":"TEME","MEAN_ELEMENT_THEORY":"SGP4","OBJECT_NAME":"STARLINK-4687","RCS_SIZE":"LARGE","INCLINATION":"53.2179","SITE":"AFETR","GP_ID":"213602616","ELEMENT_SET_NO":"999","ARG_OF_PERICENTER":"124.2615","OBJECT_ID":"2022-111M"},{"COUNTRY_CODE":"US","CLASSIFICATION_TYPE":"U","CENTER_NAME":"EARTH","PERIAPSIS":"316.981","TLE_LINE1":"1 53785U 22111N   22269.91667824  .00067114  00000-0  30459-3 0  9992","RA_OF_ASC_NODE":"187.8355","APOAPSIS":"325.404","MEAN_MOTION_DOT":"0.00067114","PERIOD":"90.951","TIME_SYSTEM":"UTC","TLE_LINE2":"2 53785  53.2042 187.8355 0006286 309.8219  63.5060 15.83273482  1304","REV_AT_EPOCH":"130","EPOCH":"2022-09-26T22:00:00.999936","DECAY_DATE":null,"SEMIMAJOR_AXIS":"6699.328","OBJECT_TYPE":"PAYLOAD","MEAN_ANOMALY":"63.5060","LAUNCH_DATE":"2022-09-11","INCLINATION":"53.2042","RCS_SIZE":"LARGE","OBJECT_NAME":"STARLINK-4638","MEAN_ELEMENT_THEORY":"SGP4","REF_FRAME":"TEME","OBJECT_ID":"2022-111N","ELEMENT_SET_NO":"999","ARG_OF_PERICENTER":"309.8219","SITE":"AFETR","GP_ID":"213601792","BSTAR":"0.00030459000000","ECCENTRICITY":"0.00062860","EPHEMERIS_TYPE":"0","MEAN_MOTION_DDOT":"0.0000000000000","MEAN_MOTION":"15.83273482","FILE":"3584555","NORAD_CAT_ID":"53785"}];
